NAVSTAR 77 (USA 289)    
1 43873U 18109A   24265.09443955  .00000018  00000+0  00000+0 0  9999
2 43873  55.3341 117.2364 0030679 192.0463   5.4691  2.00559813 42354
